start=new Date('2023-03-12T00:00:00.000Z').valueOf();
sats=[{"TLE_LINE2":"2 52549  53.2163   2.5133 0001485  72.4671 287.6483 15.08830898 46217","TLE_LINE1":"1 52549U 22051S   23070.19226892  .00000930  00000-0  76551-4 0  9996","EPOCH":"2023-03-11T04:36:52.034688","COUNTRY_CODE":"US","REF_FRAME":"TEME","CENTER_NAME":"EARTH","REV_AT_EPOCH":"4621","SITE":"AFWTR","CLASSIFICATION_TYPE":"U","OBJECT_NAME":"STARLINK-3935","EPHEMERIS_TYPE":"0","OBJECT_ID":"2022-051S","GP_ID":"227857714","MEAN_ANOMALY":"287.6483","FILE":"3857581","APOAPSIS":"540.801","ARG_OF_PERICENTER":"72.4671","ELEMENT_SET_NO":"999","RCS_SIZE":"LARGE","DECAY_DATE":null,"MEAN_MOTION_DOT":"0.00000930","TIME_SYSTEM":"UTC","NORAD_CAT_ID":"52549","SEMIMAJOR_AXIS":"6917.908","MEAN_ELEMENT_THEORY":"SGP4","RA_OF_ASC_NODE":"2.5133","ECCENTRICITY":"0.00014850","OBJECT_TYPE":"PAYLOAD","INCLINATION":"53.2163","BSTAR":"0.00007655100000","MEAN_MOTION":"15.08830898","PERIOD":"95.438","LAUNCH_DATE":"2022-05-13","PERIAPSIS":"538.746","MEAN_MOTION_DDOT":"0.0000000000000"},{"OBJECT_NAME":"STARLINK-3965","EPHEMERIS_TYPE":"0","OBJECT_ID":"2022-051T","GP_ID":"227827967","CENTER_NAME":"EARTH","REV_AT_EPOCH":"4629","SITE":"AFWTR","CLASSIFICATION_TYPE":"U","EPOCH":"2023-03-11T05:56:19.353408","COUNTRY_CODE":"US","REF_FRAME":"TEME","TLE_LINE2":"2 52550  53.2163   2.2684 0001071 122.8403 237.2692 15.08908326 46294","TLE_LINE1":"1 52550U 22051T   23070.24744622  .00059101  00000-0  36937-2 0  9996","MEAN_MOTION":"15.08908326","PERIOD":"95.433","LAUNCH_DATE":"2022-05-13","PERIAPSIS":"538.796","MEAN_MOTION_DDOT":"0.0000000000000","ECCENTRICITY":"0.00010710","OBJECT_TYPE":"PAYLOAD","INCLINATION":"53.2163","BSTAR":"0.00369370000000","NORAD_CAT_ID":"52550","MEAN_MOTION_DOT":"0.00059101","TIME_SYSTEM":"UTC","SEMIMAJOR_AXIS":"6917.672","MEAN_ELEMENT_THEORY":"SGP4","RA_OF_ASC_NODE":"2.2684","MEAN_ANOMALY":"237.2692","FILE":"3857307","APOAPSIS":"540.277","ARG_OF_PERICENTER":"122.8403","ELEMENT_SET_NO":"999","RCS_SIZE":"LARGE","DECAY_DATE":null},{"ECCENTRICITY":"0.00012470","OBJECT_TYPE":"PAYLOAD","INCLINATION":"53.2170","BSTAR":"0.00100600000000","MEAN_MOTION":"15.08843719","PERIOD":"95.437","LAUNCH_DATE":"2022-05-13","PERIAPSIS":"538.871","MEAN_MOTION_DDOT":"0.0000000000000","MEAN_ANOMALY":"305.3391","FILE":"3857847","APOAPSIS":"540.597","ELEMENT_SET_NO":"999","ARG_OF_PERICENTER":"54.7718","RCS_SIZE":"LARGE","DECAY_DATE":null,"NORAD_CAT_ID":"52551","MEAN_MOTION_DOT":"0.00015760","TIME_SYSTEM":"UTC","SEMIMAJOR_AXIS":"6917.869","MEAN_ELEMENT_THEORY":"SGP4","RA_OF_ASC_NODE":"359.5502","CENTER_NAME":"EARTH","REV_AT_EPOCH":"4631","SITE":"AFWTR","CLASSIFICATION_TYPE":"U","OBJECT_NAME":"STARLINK-3969","EPHEMERIS_TYPE":"0","OBJECT_ID":"2022-051U","GP_ID":"227891274","TLE_LINE2":"2 52551  53.2170 359.5502 0001247  54.7718 305.3391 15.08843719 46317","TLE_LINE1":"1 52551U 22051U   23070.85099232  .00015760  00000-0  10060-2 0  9996","EPOCH":"2023-03-11T20:25:25.736448","COUNTRY_CODE":"US","REF_FRAME":"TEME"},{"LAUNCH_DATE":"2022-05-13","PERIOD":"95.439","MEAN_MOTION":"15.08812351","MEAN_MOTION_DDOT":"0.0000000000000","PERIAPSIS":"539.031","OBJECT_TYPE":"PAYLOAD","ECCENTRICITY":"0.00011550","INCLINATION":"53.2178","BSTAR":"0.00234520000000","MEAN_ELEMENT_THEORY":"SGP4","SEMIMAJOR_AXIS":"6917.965","MEAN_MOTION_DOT":"0.00037205","NORAD_CAT_ID":"52552","TIME_SYSTEM":"UTC","RA_OF_ASC_NODE":"2.9142","ARG_OF_PERICENTER":"59.5099","ELEMENT_SET_NO":"999","APOAPSIS":"540.629","FILE":"3857581","MEAN_ANOMALY":"300.6007","DECAY_DATE":null,"RCS_SIZE":"LARGE","GP_ID":"227856964","OBJECT_ID":"2022-051V","EPHEMERIS_TYPE":"0","OBJECT_NAME":"STARLINK-3966","SITE":"AFWTR","REV_AT_EPOCH":"4620","CENTER_NAME":"EARTH","CLASSIFICATION_TYPE":"U","EPOCH":"2023-03-11T02:29:41.343936","REF_FRAME":"TEME","COUNTRY_CODE":"US","TLE_LINE2":"2 52552  53.2178   2.9142 0001155  59.5099 300.6007 15.08812351 46206","TLE_LINE1":"1 52552U 22051V   23070.10395074  .00037205  00000-0  23452-2 0  9995"},{"INCLINATION":"53.2163","BSTAR":"-0.00006575900000","ECCENTRICITY":"0.00005090","OBJECT_TYPE":"PAYLOAD","PERIAPSIS":"539.437","MEAN_MOTION_DDOT":"0.0000000000000","MEAN_MOTION":"15.08825772","PERIOD":"95.438","LAUNCH_DATE":"2022-05-13","RCS_SIZE":"LARGE","DECAY_DATE":null,"MEAN_ANOMALY":"284.5056","FILE":"3857581","APOAPSIS":"540.141","ELEMENT_SET_NO":"999","ARG_OF_PERICENTER":"75.5993","RA_OF_ASC_NODE":"2.2485","MEAN_MOTION_DOT":"-0.00001333","NORAD_CAT_ID":"52553","TIME_SYSTEM":"UTC","SEMIMAJOR_AXIS":"6917.924","MEAN_ELEMENT_THEORY":"SGP4","CLASSIFICATION_TYPE":"U","CENTER_NAME":"EARTH","REV_AT_EPOCH":"4622","SITE":"AFWTR","OBJECT_NAME":"STARLINK-3858","EPHEMERIS_TYPE":"0","OBJECT_ID":"2022-051W","GP_ID":"227857214","TLE_LINE1":"1 52553U 22051W   23070.25114416 -.00001333  00000-0 -65759-4 0  9994","TLE_LINE2":"2 52553  53.2163   2.2485 0000509  75.5993 284.5056 15.08825772 46224","COUNTRY_CODE":"US","REF_FRAME":"TEME","EPOCH":"2023-03-11T06:01:38.855424"},{"TLE_LINE2":"2 52554  53.2174   7.9681 0001172 102.0192 258.0932 15.08852622 46123","TLE_LINE1":"1 52554U 22051X   23070.09059333  .00003124  00000-0  21419-3 0  9995","EPOCH":"2023-03-11T02:10:27.263712","REF_FRAME":"TEME","COUNTRY_CODE":"US","SITE":"AFWTR","CENTER_NAME":"EARTH","REV_AT_EPOCH":"4612","CLASSIFICATION_TYPE":"U","GP_ID":"227858464","EPHEMERIS_TYPE":"0","OBJECT_NAME":"STARLINK-3770","OBJECT_ID":"2022-051X","ELEMENT_SET_NO":"999","ARG_OF_PERICENTER":"102.0192","FILE":"3857581","MEAN_ANOMALY":"258.0932","APOAPSIS":"540.518","RCS_SIZE":"LARGE","DECAY_DATE":null,"MEAN_ELEMENT_THEORY":"SGP4","MEAN_MOTION_DOT":"0.00003124","NORAD_CAT_ID":"52554","TIME_SYSTEM":"UTC","SEMIMAJOR_AXIS":"6917.842","RA_OF_ASC_NODE":"7.9681","ECCENTRICITY":"0.00011720","OBJECT_TYPE":"PAYLOAD","BSTAR":"0.00021419000000","INCLINATION":"53.2174","LAUNCH_DATE":"2022-05-13","MEAN_MOTION":"15.08852622","PERIOD":"95.437","PERIAPSIS":"538.896","MEAN_MOTION_DDOT":"0.0000000000000"},{"CLASSIFICATION_TYPE":"U","SITE":"AFWTR","CENTER_NAME":"EARTH","REV_AT_EPOCH":"4623","GP_ID":"227858214","EPHEMERIS_TYPE":"0","OBJECT_NAME":"STARLINK-3949","OBJECT_ID":"2022-051Y","TLE_LINE1":"1 52555U 22051Y   23070.31003387  .00046338  00000-0  29106-2 0  9993","TLE_LINE2":"2 52555  53.2167   1.9887 0001298  47.2456 312.8645 15.08838978 46230","REF_FRAME":"TEME","COUNTRY_CODE":"US","EPOCH":"2023-03-11T07:26:26.926368","BSTAR":"0.00291060000000","INCLINATION":"53.2167","ECCENTRICITY":"0.00012980","OBJECT_TYPE":"PAYLOAD","PERIAPSIS":"538.851","MEAN_MOTION_DDOT":"0.0000000000000","LAUNCH_DATE":"2022-05-13","MEAN_MOTION":"15.08838978","PERIOD":"95.438","RCS_SIZE":"LARGE","DECAY_DATE":null,"ELEMENT_SET_NO":"999","ARG_OF_PERICENTER":"47.2456","MEAN_ANOMALY":"312.8645","FILE":"3857581","APOAPSIS":"540.646","RA_OF_ASC_NODE":"1.9887","MEAN_ELEMENT_THEORY":"SGP4","MEAN_MOTION_DOT":"0.00046338","NORAD_CAT_ID":"52555","TIME_SYSTEM":"UTC","SEMIMAJOR_AXIS":"6917.884"},{"OBJECT_ID":"2022-051Z","EPHEMERIS_TYPE":"0","OBJECT_NAME":"STARLINK-3763","GP_ID":"227827966","REV_AT_EPOCH":"4624","CENTER_NAME":"EARTH","SITE":"AFWTR","CLASSIFICATION_TYPE":"U","EPOCH":"2023-03-11T05:06:48.924000","COUNTRY_CODE":"US","REF_FRAME":"TEME","TLE_LINE2":"2 52556  53.2177   5.2973 0002089 138.3215 221.7939 15.14471752 46244","TLE_LINE1":"1 52556U 22051Z   23070.21306625  .00065378  00000-0  34971-2 0  9995","PERIOD":"95.083","MEAN_MOTION":"15.14471752","LAUNCH_DATE":"2022-05-13","MEAN_MOTION_DDOT":"0.0000000000000","PERIAPSIS":"521.143","OBJECT_TYPE":"PAYLOAD","ECCENTRICITY":"0.00020890","INCLINATION":"53.2177","BSTAR":"0.00349710000000","SEMIMAJOR_AXIS":"6900.720","MEAN_MOTION_DOT":"0.00065378","TIME_SYSTEM":"UTC","NORAD_CAT_ID":"52556","MEAN_ELEMENT_THEORY":"SGP4","RA_OF_ASC_NODE":"5.2973","APOAPSIS":"524.026","FILE":"3857307","MEAN_ANOMALY":"221.7939","ELEMENT_SET_NO":"999","ARG_OF_PERICENTER":"138.3215","DECAY_DATE":null,"RCS_SIZE":"LARGE"},{"ECCENTRICITY":"0.00010130","OBJECT_TYPE":"PAYLOAD","BSTAR":"0.00097162000000","INCLINATION":"53.2172","MEAN_MOTION":"15.08835780","PERIOD":"95.438","LAUNCH_DATE":"2022-05-13","PERIAPSIS":"539.058","MEAN_MOTION_DDOT":"0.0000000000000","FILE":"3857581","MEAN_ANOMALY":"271.6093","APOAPSIS":"540.459","ELEMENT_SET_NO":"999","ARG_OF_PERICENTER":"88.5015","RCS_SIZE":"LARGE","DECAY_DATE":null,"MEAN_MOTION_DOT":"0.00015207","TIME_SYSTEM":"UTC","NORAD_CAT_ID":"52557","SEMIMAJOR_AXIS":"6917.893","MEAN_ELEMENT_THEORY":"SGP4","RA_OF_ASC_NODE":"2.0281","CENTER_NAME":"EARTH","REV_AT_EPOCH":"4623","SITE":"AFWTR","CLASSIFICATION_TYPE":"U","EPHEMERIS_TYPE":"0","OBJECT_NAME":"STARLINK-3943","OBJECT_ID":"2022-051AA","GP_ID":"227857715","TLE_LINE2":"2 52557  53.2172   2.0281 0001013  88.5015 271.6093 15.08835780 46239","TLE_LINE1":"1 52557U 22051AA  23070.29899137  .00015207  00000-0  97162-3 0  9997","EPOCH":"2023-03-11T07:10:32.854368","COUNTRY_CODE":"US","REF_FRAME":"TEME"},{"ELEMENT_SET_NO":"999","ARG_OF_PERICENTER":"86.6013","FILE":"3857847","MEAN_ANOMALY":"273.5108","APOAPSIS":"540.543","RCS_SIZE":"LARGE","DECAY_DATE":null,"MEAN_ELEMENT_THEORY":"SGP4","NORAD_CAT_ID":"52558","MEAN_MOTION_DOT":"0.00008887","TIME_SYSTEM":"UTC","SEMIMAJOR_AXIS":"6917.899","RA_OF_ASC_NODE":"349.9486","ECCENTRICITY":"0.00011270","OBJECT_TYPE":"PAYLOAD","INCLINATION":"53.2163","BSTAR":"0.00057584000000","LAUNCH_DATE":"2022-05-13","MEAN_MOTION":"15.08834046","PERIOD":"95.438","PERIAPSIS":"538.984","MEAN_MOTION_DDOT":"0.0000000000000","TLE_LINE2":"2 52558  53.2163 349.9486 0001127  86.6013 273.5108 15.08834046 46437","TLE_LINE1":"1 52558U 22051AB  23070.76359448  .00008887  00000-0  57584-3 0  9996","EPOCH":"2023-03-11T18:19:34.563072","REF_FRAME":"TEME","COUNTRY_CODE":"US","SITE":"AFWTR","CENTER_NAME":"EARTH","REV_AT_EPOCH":"4643","CLASSIFICATION_TYPE":"U","GP_ID":"227891025","OBJECT_NAME":"STARLINK-3954","EPHEMERIS_TYPE":"0","OBJECT_ID":"2022-051AB"}];
